O3B FM5                 
1 39188U 13031A   23102.51354866 -.00000018  00000+0  00000+0 0  9991
2 39188   0.0618 352.3675 0002967  32.9505 334.6966  5.00115464178925
O3B FM4                 
1 39189U 13031B   23102.16958440 -.00000017  00000+0  00000+0 0  9990
2 39189   0.0408  13.6669 0002916  11.0274 335.3198  5.00115950178923
O3B FM2                 
1 39190U 13031C   23102.26127025 -.00000018  00000+0  00000+0 0  9991
2 39190   0.0371  18.9754 0002824   3.9292 337.1082  5.00115171178988
O3B PFM                 
1 39191U 13031D   23102.28731592 -.00000018  00000+0  00000+0 0  9994
2 39191   0.0553 358.6749 0002654  21.4708 339.8650  5.00115916178546
O3B FM3                 
1 40079U 14038A   23102.14203620 -.00000017  00000+0  00000+0 0  9999
2 40079   0.0455   5.4188 0002875 324.0465  30.5182  5.00116651154912
O3B FM7                 
1 40080U 14038B   23102.08839316 -.00000017  00000+0  00000+0 0  9991
2 40080   0.0411   4.9904 0003977  38.3606 316.6805  5.00115669159746
O3B FM6                 
1 40081U 14038C   23102.51464120 -.00000018  00000+0  00000+0 0  9998
2 40081   0.0455   6.8070 0002748  13.2575 339.9463  5.00115260159714
O3B FM8                 
1 40082U 14038D   23101.76883532 -.00000017  00000+0  00000+0 0  9996
2 40082   0.0442  10.4475 0002569   9.6383 339.9248  5.00115794159799
O3B FM10                
1 40348U 14083A   23101.99500632 -.00000017  00000+0  00000+0 0  9993
2 40348   0.0543   3.9646 0002669  16.7009 339.3456  5.00115226151751
O3B FM11                
1 40349U 14083B   23102.40815661 -.00000018  00000+0  00000+0 0  9993
2 40349   0.0522 359.4031 0003333  26.6766 333.9372  5.00115435151798
O3B FM12                
1 40350U 14083C   23102.43540633 -.00000018  00000+0  00000+0 0  9992
2 40350   0.0517   0.3491 0002868  19.1291 340.5327  5.00115349151808
O3B FM9                 
1 40351U 14083D   23102.06217850 -.00000017  00000+0  00000+0 0  9993
2 40351   0.0520 358.1133 0002745  23.4180 338.4805  5.00116069151929
DIAMOND RED             
1 42783U 17036U   23102.56736089  .00024879  00000+0  68696-3 0  9990
2 42783  97.1601 138.8119 0007119 355.0641   5.0533 15.37030763322708
DIAMOND GREEN           
1 42785U 17036W   23102.53872343  .00026585  00000+0  71836-3 0  9999
2 42785  97.1594 138.9135 0006730 356.5072   3.6125 15.37692364322771
DIAMOND BLUE            
1 42786U 17036X   23102.09351675  .00028430  00000+0  77532-3 0  9991
2 42786  97.1600 138.4501 0007134 356.5203   3.5991 15.37390477322700
LEO VANTAGE 1           
1 43113U 18004C   23102.56154657  .00003435  00000+0  27281-3 0  9999
2 43113  99.2440 219.8639 0393475  11.7636 349.2429 14.56086538267728
O3B FM15                
1 43231U 18024A   23102.32796592 -.00000018  00000+0  00000+0 0  9997
2 43231   0.0563   6.8249 0002965  12.1811 341.0052  5.00116365 92906
O3B FM16                
1 43232U 18024B   23101.98165847 -.00000017  00000+0  00000+0 0  9991
2 43232   0.0596   9.2602 0002985   9.7639 340.9873  5.00116154 92809
O3B FM14                
1 43233U 18024C   23102.02153405 -.00000017  00000+0  00000+0 0  9995
2 43233   0.0604  10.5381 0003061  11.6234 337.8521  5.00115563 92817
O3B FM13                
1 43234U 18024D   23100.67591590 -.00000015  00000+0  00000+0 0  9994
2 43234   0.0684 352.3754 0003563  15.4442 352.1870  5.00115531 92853
O3B FM20                
1 44112U 19020A   23102.24810601 -.00000018  00000+0  00000+0 0  9992
2 44112   0.0538   4.5195 0003341  13.5165 341.9760  5.00115595 73445
O3B FM19                
1 44113U 19020B   23100.47603543 -.00000015  00000+0  00000+0 0  9998
2 44113   0.0598   4.4331 0003581  37.0037 318.5916  5.00115286 73224
O3B FM17                
1 44114U 19020C   23102.35533728 -.00000018  00000+0  00000+0 0  9998
2 44114   0.0533  25.6391 0003031 351.6752 342.6961  5.00115763 73402
O3B FM18                
1 44115U 19020D   23102.30179402 -.00000018  00000+0  00000+0 0  9999
2 44115   0.0539   4.1492 0002840  15.3478 340.5140  5.00115947 73522
SALSAT                  
1 46495U 20068K   23102.40497142  .00006776  00000+0  45504-3 0  9999
2 46495  97.7640  49.7678 0015424 350.0988   9.9933 15.07041325139164
